{
  "type": "FeatureCollection",
  "features": [
    {
      "type": "Feature",
      "properties": {
        "norad_id": 44333,
        "name": "AT&T T-16",
        "group": "intelsat",
        "lat": 0.020663105471489838,
        "lon": 84.96655038950351,
        "alt_km": 35785.987087705624,
        "timestamp": "2025-12-11T07:02:23.401795+00:00",
        "meta_object_name": "AT&T T-16",
        "meta_object_id": "2019-034A",
        "meta_epoch": "2025-12-10T19:54:39.477312",
        "meta_mean_motion": 1.00268617,
        "meta_eccentricity": 5.152e-05,
        "meta_inclination": 0.0295,
        "meta_ra_of_asc_node": 73.7862,
        "meta_arg_of_pericenter": 74.0996,
        "meta_mean_anomaly": 129.705,
        "meta_ephemeris_type": 0,
        "meta_classification_type": "U",
        "meta_norad_cat_id": 44333,
        "meta_element_set_no": 999,
        "meta_rev_at_epoch": 2374,
        "meta_bstar": 0,
        "meta_mean_motion_dot": -1.1e-06,
        "meta_mean_motion_ddot": 0,
        "tle_line1": "1 44333U 19034A   25344.82962358 -.00000110  00000+0  00000+0 0  9996",
        "tle_line2": "2 44333   0.0295  73.7862 0000515  74.0996 129.7050  1.00268617 23745"
      },
      "geometry": {
        "type": "Point",
        "coordinates": [
          84.96655038950351,
          0.020663105471489838
        ]
      }
    },
    {
      "type": "Feature",
      "properties": {
        "norad_id": 44476,
        "name": "INTELSAT 39 (IS-39)",
        "group": "intelsat",
        "lat": -0.03687971451702757,
        "lon": -112.19690428539035,
        "alt_km": 35787.13160378437,
        "timestamp": "2025-12-11T07:02:23.401807+00:00",
        "meta_object_name": "INTELSAT 39 (IS-39)",
        "meta_object_id": "2019-049B",
        "meta_epoch": "2025-12-10T21:31:30.909792",
        "meta_mean_motion": 1.0027062,
        "meta_eccentricity": 9.467e-05,
        "meta_inclination": 0.0193,
        "meta_ra_of_asc_node": 327.299,
        "meta_arg_of_pericenter": 179.8863,
        "meta_mean_anomaly": 317.5032,
        "meta_ephemeris_type": 0,
        "meta_classification_type": "U",
        "meta_norad_cat_id": 44476,
        "meta_element_set_no": 999,
        "meta_rev_at_epoch": 2324,
        "meta_bstar": 0,
        "meta_mean_motion_dot": 3.9e-07,
        "meta_mean_motion_ddot": 0,
        "tle_line1": "1 44476U 19049B   25344.89688553  .00000039  00000+0  00000+0 0  9998",
        "tle_line2": "2 44476   0.0193 327.2990 0000946 179.8863 317.5032  1.00270620 23243"
      },
      "geometry": {
        "type": "Point",
        "coordinates": [
          -112.19690428539035,
          -0.03687971451702757
        ]
      }
    },
    {
      "type": "Feature",
      "properties": {
        "norad_id": 46114,
        "name": "GALAXY 30 (G-30)",
        "group": "intelsat",
        "lat": 0.03342905565838871,
        "lon": 60.85759454336977,
        "alt_km": 35795.27789468371,
        "timestamp": "2025-12-11T07:02:23.401819+00:00",
        "meta_object_name": "GALAXY 30 (G-30)",
        "meta_object_id": "2020-056C",
        "meta_epoch": "2025-12-10T14:39:34.689024",
        "meta_mean_motion": 1.00272102,
        "meta_eccentricity": 0.00023349,
        "meta_inclination": 0.016,
        "meta_ra_of_asc_node": 326.8036,
        "meta_arg_of_pericenter": 293.1888,
        "meta_mean_anomaly": 274.4835,
        "meta_ephemeris_type": 0,
        "meta_classification_type": "U",
        "meta_norad_cat_id": 46114,
        "meta_element_set_no": 999,
        "meta_rev_at_epoch": 1940,
        "meta_bstar": 0,
        "meta_mean_motion_dot": 4.1e-07,
        "meta_mean_motion_ddot": 0,
        "tle_line1": "1 46114U 20056C   25344.61081816  .00000041  00000+0  00000+0 0  9991",
        "tle_line2": "2 46114   0.0160 326.8036 0002334 293.1888 274.4835  1.00272102 19406"
      },
      "geometry": {
        "type": "Point",
        "coordinates": [
          60.85759454336977,
          0.03342905565838871
        ]
      }
    },
    {
      "type": "Feature",
      "properties": {
        "norad_id": 54026,
        "name": "GALAXY 33 (G-33)",
        "group": "intelsat",
        "lat": 0.026172722245975208,
        "lon": 52.86300982641929,
        "alt_km": 35794.14805617316,
        "timestamp": "2025-12-11T07:02:23.401831+00:00",
        "meta_object_name": "GALAXY 33 (G-33)",
        "meta_object_id": "2022-128A",
        "meta_epoch": "2025-12-10T16:20:05.245728",
        "meta_mean_motion": 1.0027149,
        "meta_eccentricity": 0.00020636,
        "meta_inclination": 0.0101,
        "meta_ra_of_asc_node": 314.8449,
        "meta_arg_of_pericenter": 300.9384,
        "meta_mean_anomaly": 295.8951,
        "meta_ephemeris_type": 0,
        "meta_classification_type": "U",
        "meta_norad_cat_id": 54026,
        "meta_element_set_no": 999,
        "meta_rev_at_epoch": 1185,
        "meta_bstar": 0,
        "meta_mean_motion_dot": 8.3e-07,
        "meta_mean_motion_ddot": 0,
        "tle_line1": "1 54026U 22128A   25344.68061627  .00000083  00000+0  00000+0 0  9995",
        "tle_line2": "2 54026   0.0101 314.8449 0002063 300.9384 295.8951  1.00271490 11850"
      },
      "geometry": {
        "type": "Point",
        "coordinates": [
          52.86300982641929,
          0.026172722245975208
        ]
      }
    },
    {
      "type": "Feature",
      "properties": {
        "norad_id": 54027,
        "name": "GALAXY 34 (G-34)",
        "group": "intelsat",
        "lat": 0.04098662285387706,
        "lon": 56.921156289174846,
        "alt_km": 35791.84263340557,
        "timestamp": "2025-12-11T07:02:23.401843+00:00",
        "meta_object_name": "GALAXY 34 (G-34)",
        "meta_object_id": "2022-128B",
        "meta_epoch": "2025-12-10T16:21:12.637728",
        "meta_mean_motion": 1.0027074,
        "meta_eccentricity": 0.00013698,
        "meta_inclination": 0.0234,
        "meta_ra_of_asc_node": 332.8525,
        "meta_arg_of_pericenter": 281.7333,
        "meta_mean_anomaly": 301.4385,
        "meta_ephemeris_type": 0,
        "meta_classification_type": "U",
        "meta_norad_cat_id": 54027,
        "meta_element_set_no": 999,
        "meta_rev_at_epoch": 1202,
        "meta_bstar": 0,
        "meta_mean_motion_dot": 0,
        "meta_mean_motion_ddot": 0,
        "tle_line1": "1 54027U 22128B   25344.68139627  .00000000  00000+0  00000+0 0  9991",
        "tle_line2": "2 54027   0.0234 332.8525 0001369 281.7333 301.4385  1.00270740 12023"
      },
      "geometry": {
        "type": "Point",
        "coordinates": [
          56.921156289174846,
          0.04098662285387706
        ]
      }
    },
    {
      "type": "Feature",
      "properties": {
        "norad_id": 54243,
        "name": "GALAXY 31 (G-31)",
        "group": "intelsat",
        "lat": 0.013924963567412647,
        "lon": 64.86860421912444,
        "alt_km": 35792.90347091364,
        "timestamp": "2025-12-11T07:02:23.401855+00:00",
        "meta_object_name": "GALAXY 31 (G-31)",
        "meta_object_id": "2022-153A",
        "meta_epoch": "2025-12-10T14:40:42.081888",
        "meta_mean_motion": 1.00272364,
        "meta_eccentricity": 0.0001855,
        "meta_inclination": 0.0158,
        "meta_ra_of_asc_node": 257.1069,
        "meta_arg_of_pericenter": 14.3955,
        "meta_mean_anomaly": 267.2647,
        "meta_ephemeris_type": 0,
        "meta_classification_type": "U",
        "meta_norad_cat_id": 54243,
        "meta_element_set_no": 999,
        "meta_rev_at_epoch": 524,
        "meta_bstar": 0,
        "meta_mean_motion_dot": 1.7e-07,
        "meta_mean_motion_ddot": 0,
        "tle_line1": "1 54243U 22153A   25344.61159817  .00000017  00000+0  00000+0 0  9993",
        "tle_line2": "2 54243   0.0158 257.1069 0001855  14.3955 267.2647  1.00272364  5240"
      },
      "geometry": {
        "type": "Point",
        "coordinates": [
          64.86860421912444,
          0.013924963567412647
        ]
      }
    },
    {
      "type": "Feature",
      "properties": {
        "norad_id": 54244,
        "name": "GALAXY 32 (G-32)",
        "group": "intelsat",
        "lat": 0.025312420505122956,
        "lon": 94.85630322924574,
        "alt_km": 35795.37788083958,
        "timestamp": "2025-12-11T07:02:23.401866+00:00",
        "meta_object_name": "GALAXY 32 (G-32)",
        "meta_object_id": "2022-153B",
        "meta_epoch": "2025-12-10T11:23:53.431008",
        "meta_mean_motion": 1.00269631,
        "meta_eccentricity": 0.00024863,
        "meta_inclination": 0.0094,
        "meta_ra_of_asc_node": 343.9176,
        "meta_arg_of_pericenter": 325.4249,
        "meta_mean_anomaly": 210.0765,
        "meta_ephemeris_type": 0,
        "meta_classification_type": "U",
        "meta_norad_cat_id": 54244,
        "meta_element_set_no": 999,
        "meta_rev_at_epoch": 1125,
        "meta_bstar": 0,
        "meta_mean_motion_dot": -1.7e-06,
        "meta_mean_motion_ddot": 0,
        "tle_line1": "1 54244U 22153B   25344.47492397 -.00000170  00000+0  00000+0 0  9992",
        "tle_line2": "2 54244   0.0094 343.9176 0002486 325.4249 210.0765  1.00269631 11254"
      },
      "geometry": {
        "type": "Point",
        "coordinates": [
          94.85630322924574,
          0.025312420505122956
        ]
      }
    }
  ]
}